[{"OBJECT_NAME":"STARLINK-5640","OBJECT_ID":"2023-014AX","EPOCH":"2026-03-09T12:43:34.446720","MEAN_MOTION":14.98346394,"ECCENTRICITY":0.00033925,"INCLINATION":70.0004,"RA_OF_ASC_NODE":104.9084,"ARG_OF_PERICENTER":275.406,"MEAN_ANOMALY":84.6712,"EPHEMERIS_TYPE":0,"CLASSIFICATION_TYPE":"U","NORAD_CAT_ID":55436,"ELEMENT_SET_NO":999,"REV_AT_EPOCH":17104,"BSTAR":0.0001988912,"MEAN_MOTION_DOT":2.282e-5,"MEAN_MOTION_DDOT":0},{"OBJECT_NAME":"CZ-6A DEB","OBJECT_ID":"2024-140HT","EPOCH":"2026-03-09T14:47:18.537792","MEAN_MOTION":14.73340782,"ECCENTRICITY":0.0120127,"INCLINATION":88.9844,"RA_OF_ASC_NODE":279.929,"ARG_OF_PERICENTER":188.2272,"MEAN_ANOMALY":171.6982,"EPHEMERIS_TYPE":0,"CLASSIFICATION_TYPE":"U","NORAD_CAT_ID":60840,"ELEMENT_SET_NO":999,"REV_AT_EPOCH":8412,"BSTAR":0.0011992,"MEAN_MOTION_DOT":8.732e-5,"MEAN_MOTION_DDOT":0}]
